{"type": "FeatureCollection", "features": [ {"type": "Feature", "properties": {"norad_id": 35241, "name": "FENGYUN 1C DEB", "group": "fengyun-1c-debris", "lat": 79.43635427740378, "lon": -145.65372253605142, "alt_km": 961.6713461034751, "timestamp": "2025-12-05T09:41:19.417825+00:00", "meta": {"OBJECT_NAME": "FENGYUN 1C DEB", "OBJECT_ID": "1999-025DQZ", "EPOCH": "2025-11-30T05:56:44.334240", "MEAN_MOTION": 14.01843685, "ECCENTRICITY": 0.01367336, "INCLINATION": 98.628, "RA_OF_ASC_NODE": 263.9706, "ARG_OF_PERICENTER": 244.1586, "MEAN_ANOMALY": 114.5426, "EPHEMERIS_TYPE": 0, "CLASSIFICATION_TYPE": "U", "NORAD_CAT_ID": 35241, "ELEMENT_SET_NO": 999, "REV_AT_EPOCH": 87431, "BSTAR": 0.001716208, "MEAN_MOTION_DOT": 2.791e-05, "MEAN_MOTION_DDOT": 0}, "tle": {"line1": "1 35241U 99025DQZ 25334.24773535  .00002791  00000+0  17162-2 0  9990", "line2": "2 35241  98.6280 263.9706 0136733 244.1586 114.5426 14.01843685874312"}}, "geometry": {"type": "Point", "coordinates": [-145.65372253605142, 79.43635427740378]}}, {"type": "Feature", "properties": {"norad_id": 35242, "name": "FENGYUN 1C DEB", "group": "fengyun-1c-debris", "lat": 41.077542582746766, "lon": 23.085491676483098, "alt_km": 1276.717763539531, "timestamp": "2025-12-05T09:41:19.417835+00:00", "meta": {"OBJECT_NAME": "FENGYUN 1C DEB", "OBJECT_ID": "1999-025DRA", "EPOCH": "2025-12-04T10:28:19.768224", "MEAN_MOTION": 13.52312395, "ECCENTRICITY": 0.0301694, "INCLINATION": 99.97, "RA_OF_ASC_NODE": 30.9318, "ARG_OF_PERICENTER": 209.2747, "MEAN_ANOMALY": 166.544, "EPHEMERIS_TYPE": 0, "CLASSIFICATION_TYPE": "U", "NORAD_CAT_ID": 35242, "ELEMENT_SET_NO": 999, "REV_AT_EPOCH": 58015, "BSTAR": 0.0029248, "MEAN_MOTION_DOT": 2.524e-05, "MEAN_MOTION_DDOT": 0}, "tle": {"line1": "1 35242U 99025DRA 25338.43633991  .00002524  00000+0  29248-2 0  9999", "line2": "2 35242  99.9700  30.9318 0301694 209.2747 166.5440 13.52312395580159"}}, "geometry": {"type": "Point", "coordinates": [23.085491676483098, 41.077542582746766]}}, {"type": "Feature", "properties": {"norad_id": 35243, "name": "FENGYUN 1C DEB", "group": "fengyun-1c-debris", "lat": 30.054575643833818, "lon": -117.38769716557698, "alt_km": 637.1269481317267, "timestamp": "2025-12-05T09:41:19.417845+00:00", "meta": {"OBJECT_NAME": "FENGYUN 1C DEB", "OBJECT_ID": "1999-025DRB", "EPOCH": "2025-12-04T12:00:41.514336", "MEAN_MOTION": 14.86464292, "ECCENTRICITY": 0.0065919, "INCLINATION": 98.8819, "RA_OF_ASC_NODE": 56.4125, "ARG_OF_PERICENTER": 283.2276, "MEAN_ANOMALY": 76.1589, "EPHEMERIS_TYPE": 0, "CLASSIFICATION_TYPE": "U", "NORAD_CAT_ID": 35243, "ELEMENT_SET_NO": 999, "REV_AT_EPOCH": 90878, "BSTAR": 0.0056415, "MEAN_MOTION_DOT": 0.00052162, "MEAN_MOTION_DDOT": 0}, "tle": {"line1": "1 35243U 99025DRB 25338.50048049  .00052162  00000+0  56415-2 0  9991", "line2": "2 35243  98.8819  56.4125 0065919 283.2276  76.1589 14.86464292908789"}}, "geometry": {"type": "Point", "coordinates": [-117.38769716557698, 30.054575643833818]}}, {"type": "Feature", "properties": {"norad_id": 35244, "name": "FENGYUN 1C DEB", "group": "fengyun-1c-debris", "lat": 79.82058874903548, "lon": -40.31386989245023, "alt_km": 865.7179267519023, "timestamp": "2025-12-05T09:41:19.417855+00:00", "meta": {"OBJECT_NAME": "FENGYUN 1C DEB", "OBJECT_ID": "1999-025DRC", "EPOCH": "2025-11-28T08:16:08.942880", "MEAN_MOTION": 14.06587335, "ECCENTRICITY": 0.00714695, "INCLINATION": 98.8424, "RA_OF_ASC_NODE": 12.8921, "ARG_OF_PERICENTER": 197.497, "MEAN_ANOMALY": 162.3735, "EPHEMERIS_TYPE": 0, "CLASSIFICATION_TYPE": "U", "NORAD_CAT_ID": 35244, "ELEMENT_SET_NO": 999, "REV_AT_EPOCH": 65619, "BSTAR": 0.00065997772, "MEAN_MOTION_DOT": 1.076e-05, "MEAN_MOTION_DDOT": 0}, "tle": {"line1": "1 35244U 99025DRC 25332.34454795  .00001076  00000+0  65998-3 0  9992", "line2": "2 35244  98.8424  12.8921 0071469 197.4970 162.3735 14.06587335656198"}}, "geometry": {"type": "Point", "coordinates": [-40.31386989245023, 79.82058874903548]}}, {"type": "Feature", "properties": {"norad_id": 35245, "name": "FENGYUN 1C DEB", "group": "fengyun-1c-debris", "lat": 8.00183462804101, "lon": -113.89741248583593, "alt_km": 871.4063816320804, "timestamp": "2025-12-05T09:41:19.417865+00:00", "meta": {"OBJECT_NAME": "FENGYUN 1C DEB", "OBJECT_ID": "1999-025DRD", "EPOCH": "2025-12-04T01:10:25.154400", "MEAN_MOTION": 14.13001391, "ECCENTRICITY": 0.00582885, "INCLINATION": 99.085, "RA_OF_ASC_NODE": 63.4394, "ARG_OF_PERICENTER": 295.0869, "MEAN_ANOMALY": 189.4728, "EPHEMERIS_TYPE": 0, "CLASSIFICATION_TYPE": "U", "NORAD_CAT_ID": 35245, "ELEMENT_SET_NO": 999, "REV_AT_EPOCH": 87654, "BSTAR": 0.0033838858, "MEAN_MOTION_DOT": 6.371e-05, "MEAN_MOTION_DDOT": 0}, "tle": {"line1": "1 35245U 99025DRD 25338.04890225  .00006371  00000+0  33839-2 0  9999", "line2": "2 35245  99.0850  63.4394 0058288 295.0869 189.4728 14.13001391876543"}}, "geometry": {"type": "Point", "coordinates": [-113.89741248583593, 8.00183462804101]}}, {"type": "Feature", "properties": {"norad_id": 36147, "name": "FENGYUN 1C DEB", "group": "fengyun-1c-debris", "lat": 18.04425532714988, "lon": -128.4896506647621, "alt_km": 1239.7511202385385, "timestamp": "2025-12-05T09:41:19.417875+00:00", "meta": {"OBJECT_NAME": "FENGYUN 1C DEB", "OBJECT_ID": "1999-025DRU", "EPOCH": "2025-11-30T21:50:24.807840", "MEAN_MOTION": 13.46453652, "ECCENTRICITY": 0.04407422, "INCLINATION": 98.5269, "RA_OF_ASC_NODE": 44.8692, "ARG_OF_PERICENTER": 293.3481, "MEAN_ANOMALY": 62.1872, "EPHEMERIS_TYPE": 0, "CLASSIFICATION_TYPE": "U", "NORAD_CAT_ID": 36147, "ELEMENT_SET_NO": 999, "REV_AT_EPOCH": 59838, "BSTAR": 0.0016909351, "MEAN_MOTION_DOT": 1.8e-05, "MEAN_MOTION_DDOT": 0}, "tle": {"line1": "1 36147U 99025DRU 25334.91000935  .00001800  00000+0  16909-2 0  9995", "line2": "2 36147  98.5269  44.8692 0440742 293.3481  62.1872 13.46453652598384"}}, "geometry": {"type": "Point", "coordinates": [-128.4896506647621, 18.04425532714988]}}, {"type": "Feature", "properties": {"norad_id": 36148, "name": "FENGYUN 1C DEB", "group": "fengyun-1c-debris", "lat": -5.976064437786483, "lon": 10.055104477035279, "alt_km": 1158.4805015197044, "timestamp": "2025-12-05T09:41:19.417885+00:00", "meta": {"OBJECT_NAME": "FENGYUN 1C DEB", "OBJECT_ID": "1999-025DRV", "EPOCH": "2025-12-03T20:23:01.629024", "MEAN_MOTION": 13.84807832, "ECCENTRICITY": 0.0284672, "INCLINATION": 98.4222, "RA_OF_ASC_NODE": 189.5461, "ARG_OF_PERICENTER": 13.8373, "MEAN_ANOMALY": 347.0384, "EPHEMERIS_TYPE": 0, "CLASSIFICATION_TYPE": "U", "NORAD_CAT_ID": 36148, "ELEMENT_SET_NO": 999, "REV_AT_EPOCH": 90121, "BSTAR": 0.0057917, "MEAN_MOTION_DOT": 8.917e-05, "MEAN_MOTION_DDOT": 0}, "tle": {"line1": "1 36148U 99025DRV 25337.84932441  .00008917  00000+0  57917-2 0  9997", "line2": "2 36148  98.4222 189.5461 0284672  13.8373 347.0384 13.84807832901215"}}, "geometry": {"type": "Point", "coordinates": [10.055104477035279, -5.976064437786483]}}, {"type": "Feature", "properties": {"norad_id": 36152, "name": "FENGYUN 1C DEB", "group": "fengyun-1c-debris", "lat": -42.557876230154875, "lon": -168.82258761314, "alt_km": 802.2526046972316, "timestamp": "2025-12-05T09:41:19.417895+00:00", "meta": {"OBJECT_NAME": "FENGYUN 1C DEB", "OBJECT_ID": "1999-025DRZ", "EPOCH": "2025-12-01T19:54:46.717632", "MEAN_MOTION": 14.17165266, "ECCENTRICITY": 0.00551923, "INCLINATION": 98.7567, "RA_OF_ASC_NODE": 15.7938, "ARG_OF_PERICENTER": 243.2962, "MEAN_ANOMALY": 116.2556, "EPHEMERIS_TYPE": 0, "CLASSIFICATION_TYPE": "U", "NORAD_CAT_ID": 36152, "ELEMENT_SET_NO": 999, "REV_AT_EPOCH": 64002, "BSTAR": 0.0012638311, "MEAN_MOTION_DOT": 2.542e-05, "MEAN_MOTION_DDOT": 0}, "tle": {"line1": "1 36152U 99025DRZ 25335.82970738  .00002542  00000+0  12638-2 0  9998", "line2": "2 36152  98.7567  15.7938 0055192 243.2962 116.2556 14.17165266640021"}}, "geometry": {"type": "Point", "coordinates": [-168.82258761314, -42.557876230154875]}}, {"type": "Feature", "properties": {"norad_id": 36163, "name": "FENGYUN 1C DEB", "group": "fengyun-1c-debris", "lat": -21.056676815587057, "lon": -173.67102890336113, "alt_km": 714.5379541503962, "timestamp": "2025-12-05T09:41:19.417905+00:00", "meta": {"OBJECT_NAME": "FENGYUN 1C DEB", "OBJECT_ID": "1999-025DSL", "EPOCH": "2025-11-27T12:26:15.654336", "MEAN_MOTION": 14.58361311, "ECCENTRICITY": 0.00369307, "INCLINATION": 99.0776, "RA_OF_ASC_NODE": 174.1952, "ARG_OF_PERICENTER": 119.0745, "MEAN_ANOMALY": 241.4158, "EPHEMERIS_TYPE": 0, "CLASSIFICATION_TYPE": "U", "NORAD_CAT_ID": 36163, "ELEMENT_SET_NO": 999, "REV_AT_EPOCH": 88965, "BSTAR": 0.0029707469, "MEAN_MOTION_DOT": 0.00013857, "MEAN_MOTION_DDOT": 0}, "tle": {"line1": "1 36163U 99025DSL 25331.51823674  .00013857  00000+0  29707-2 0  9994", "line2": "2 36163  99.0776 174.1952 0036930 119.0745 241.4158 14.58361311889650"}}, "geometry": {"type": "Point", "coordinates": [-173.67102890336113, -21.056676815587057]}}, {"type": "Feature", "properties": {"norad_id": 36167, "name": "FENGYUN 1C DEB", "group": "fengyun-1c-debris", "lat": -28.494622038117704, "lon": -108.91879202118595, "alt_km": 712.4815371998266, "timestamp": "2025-12-05T09:41:19.417915+00:00", "meta": {"OBJECT_NAME": "FENGYUN 1C DEB", "OBJECT_ID": "1999-025DSQ", "EPOCH": "2025-12-03T11:25:18.106464", "MEAN_MOTION": 14.49112363, "ECCENTRICITY": 0.00694671, "INCLINATION": 98.8131, "RA_OF_ASC_NODE": 244.2376, "ARG_OF_PERICENTER": 272.8926, "MEAN_ANOMALY": 86.4318, "EPHEMERIS_TYPE": 0, "CLASSIFICATION_TYPE": "U", "NORAD_CAT_ID": 36167, "ELEMENT_SET_NO": 999, "REV_AT_EPOCH": 67145, "BSTAR": 0.00170376, "MEAN_MOTION_DOT": 6.631e-05, "MEAN_MOTION_DDOT": 0}, "tle": {"line1": "1 36167U 99025DSQ 25337.47590401  .00006631  00000+0  17038-2 0  9994", "line2": "2 36167  98.8131 244.2376 0069467 272.8926  86.4318 14.49112363671458"}}, "geometry": {"type": "Point", "coordinates": [-108.91879202118595, -28.494622038117704]}}]}